{
  "norad_id": 61737,
  "name": "SITRO-AIS 16",
  "history": [
    {
      "epoch": "2026-03-28T21:36:36.178272Z",
      "apogee_km": 579.8829435001544,
      "perigee_km": 571.4271323820176,
      "latitude_deg": 4.540337712811655e-05,
      "longitude_deg": 141.76262226688445,
      "height_km": 574.5526342221216,
      "semi_major_axis_km": 6953.792037941086,
      "eccentricity": 0.000608,
      "inclination_deg": 97.3301,
      "raan_deg": 292.2276,
      "arg_perigee_deg": 350.0556,
      "mean_anomaly_deg": 10.0546,
      "mean_motion_rev_day": 14.97166891
    },
    {
      "epoch": "2026-03-29T04:01:34.233312Z",
      "apogee_km": 579.8582029220015,
      "perigee_km": 571.4316100077467,
      "latitude_deg": 3.3779790216937414e-05,
      "longitude_deg": 45.50792685227994,
      "height_km": 574.5650078702708,
      "semi_major_axis_km": 6953.781906464874,
      "eccentricity": 0.0006059,
      "inclination_deg": 97.33,
      "raan_deg": 292.4783,
      "arg_perigee_deg": 349.4426,
      "mean_anomaly_deg": 10.6669,
      "mean_motion_rev_day": 14.97170163
    },
    {
      "epoch": "2026-03-30T04:05:11.639040Z",
      "apogee_km": 579.7468834206975,
      "perigee_km": 571.49277406498,
      "latitude_deg": -6.854578853551259e-06,
      "longitude_deg": 44.554350344849375,
      "height_km": 574.6665000804429,
      "semi_major_axis_km": 6953.7568287428385,
      "eccentricity": 0.0005935,
      "inclination_deg": 97.3297,
      "raan_deg": 293.4187,
      "arg_perigee_deg": 346.6657,
      "mean_anomaly_deg": 13.4408,
      "mean_motion_rev_day": 14.97178262
    },
    {
      "epoch": "2026-03-30T05:41:26.108736Z",
      "apogee_km": 579.7430825995689,
      "perigee_km": 571.4920355899294,
      "latitude_deg": 4.8637294657337716e-05,
      "longitude_deg": 20.490878188804327,
      "height_km": 574.6695411002835,
      "semi_major_axis_km": 6953.754559094749,
      "eccentricity": 0.00059328,
      "inclination_deg": 97.3297,
      "raan_deg": 293.4814,
      "arg_perigee_deg": 346.439,
      "mean_anomaly_deg": 13.6673,
      "mean_motion_rev_day": 14.97178995
    },
    {
      "epoch": "2026-03-30T13:42:38.434752Z",
      "apogee_km": 579.7116192863105,
      "perigee_km": 571.5023073129969,
      "latitude_deg": 4.5994778156766996e-05,
      "longitude_deg": -99.82645290238267,
      "height_km": 574.6957299414903,
      "semi_major_axis_km": 6953.743963299654,
      "eccentricity": 0.00059028,
      "inclination_deg": 97.3296,
      "raan_deg": 293.7948,
      "arg_perigee_deg": 345.4965,
      "mean_anomaly_deg": 14.6088,
      "mean_motion_rev_day": 14.97182417
    },
    {
      "epoch": "2026-03-30T20:07:36.259104Z",
      "apogee_km": 579.6855331531842,
      "perigee_km": 571.5130850185678,
      "latitude_deg": -1.6007731957801198e-05,
      "longitude_deg": 163.91992222183916,
      "height_km": 574.7191433396642,
      "semi_major_axis_km": 6953.736309085875,
      "eccentricity": 0.00058763,
      "inclination_deg": 97.3297,
      "raan_deg": 294.0456,
      "arg_perigee_deg": 344.7789,
      "mean_anomaly_deg": 15.3256,
      "mean_motion_rev_day": 14.97184889
    },
    {
      "epoch": "2026-03-31T20:11:12.798240Z",
      "apogee_km": 579.5918472550511,
      "perigee_km": 571.5533589538627,
      "latitude_deg": -4.965473670336986e-05,
      "longitude_deg": 162.96996625389212,
      "height_km": 574.8167783176525,
      "semi_major_axis_km": 6953.709603104457,
      "eccentricity": 0.000578,
      "inclination_deg": 97.3295,
      "raan_deg": 294.986,
      "arg_perigee_deg": 341.8338,
      "mean_anomaly_deg": 18.2677,
      "mean_motion_rev_day": 14.97193514
    },
    {
      "epoch": "2026-04-01T20:14:48.814656Z",
      "apogee_km": 579.4946700181363,
      "perigee_km": 571.6036269768219,
      "latitude_deg": -5.233807644369422e-06,
      "longitude_deg": 162.02208415829492,
      "height_km": 574.9337563971777,
      "semi_major_axis_km": 6953.686148497479,
      "eccentricity": 0.0005674,
      "inclination_deg": 97.3294,
      "raan_deg": 295.9263,
      "arg_perigee_deg": 338.8126,
      "mean_anomaly_deg": 21.2861,
      "mean_motion_rev_day": 14.97201089
    },
    {
      "epoch": "2026-04-02T20:18:24.246144Z",
      "apogee_km": 579.3924458333904,
      "perigee_km": 571.6224435309023,
      "latitude_deg": 3.570121282584201e-05,
      "longitude_deg": 161.07664590185763,
      "height_km": 575.0276306461976,
      "semi_major_axis_km": 6953.644444682146,
      "eccentricity": 0.0005587,
      "inclination_deg": 97.3294,
      "raan_deg": 296.8666,
      "arg_perigee_deg": 335.7992,
      "mean_anomaly_deg": 24.2968,
      "mean_motion_rev_day": 14.97214558
    },
    {
      "epoch": "2026-04-02T21:54:38.580192Z",
      "apogee_km": 579.3907474979969,
      "perigee_km": 571.6189401548263,
      "latitude_deg": -3.828520073028304e-05,
      "longitude_deg": 137.01375702611662,
      "height_km": 575.0302726649619,
      "semi_major_axis_km": 6953.641843826412,
      "eccentricity": 0.00055883,
      "inclination_deg": 97.3294,
      "raan_deg": 296.9293,
      "arg_perigee_deg": 335.5831,
      "mean_anomaly_deg": 24.5126,
      "mean_motion_rev_day": 14.97215398
    },
    {
      "epoch": "2026-04-03T20:21:58.965696Z",
      "apogee_km": 579.2818093360202,
      "perigee_km": 571.6537049174522,
      "latitude_deg": 5.268839126355485e-06,
      "longitude_deg": 160.13429055668414,
      "height_km": 575.15502132216,
      "semi_major_axis_km": 6953.604757126735,
      "eccentricity": 0.0005485,
      "inclination_deg": 97.3295,
      "raan_deg": 297.807,
      "arg_perigee_deg": 332.2968,
      "mean_anomaly_deg": 27.7962,
      "mean_motion_rev_day": 14.97227376
    },
    {
      "epoch": "2026-04-04T20:25:32.938752Z",
      "apogee_km": 579.1980098886152,
      "perigee_km": 571.6798036182336,
      "latitude_deg": -3.294959878403093e-05,
      "longitude_deg": 159.19475425977788,
      "height_km": 575.2914744332816,
      "semi_major_axis_km": 6953.5759067534245,
      "eccentricity": 0.0005406,
      "inclination_deg": 97.3298,
      "raan_deg": 298.7471,
      "arg_perigee_deg": 328.6961,
      "mean_anomaly_deg": 31.3939,
      "mean_motion_rev_day": 14.97236694
    },
    {
      "epoch": "2026-04-05T14:04:09.470208Z",
      "apogee_km": 579.1459808406826,
      "perigee_km": 571.6842631296231,
      "latitude_deg": -3.52431895244329e-05,
      "longitude_deg": -105.49245305403035,
      "height_km": 575.3911971211729,
      "semi_major_axis_km": 6953.552121985153,
      "eccentricity": 0.00053654,
      "inclination_deg": 97.3299,
      "raan_deg": 299.4367,
      "arg_perigee_deg": 325.879,
      "mean_anomaly_deg": 34.2087,
      "mean_motion_rev_day": 14.97244376
    },
    {
      "epoch": "2026-04-05T20:29:06.314784Z",
      "apogee_km": 579.1232537012711,
      "perigee_km": 571.6940855078656,
      "latitude_deg": -4.546253041164957e-05,
      "longitude_deg": 158.2579082353587,
      "height_km": 575.4378059604755,
      "semi_major_axis_km": 6953.5456696045685,
      "eccentricity": 0.0005342,
      "inclination_deg": 97.33,
      "raan_deg": 299.6874,
      "arg_perigee_deg": 324.8075,
      "mean_anomaly_deg": 35.2794,
      "mean_motion_rev_day": 14.9724646
    },
    {
      "epoch": "2026-04-06T04:30:17.333568Z",
      "apogee_km": 579.102985718634,
      "perigee_km": 571.6967735881162,
      "latitude_deg": 1.0770899745394332e-06,
      "longitude_deg": 37.94603145064901,
      "height_km": 575.489271642202,
      "semi_major_axis_km": 6953.536879653375,
      "eccentricity": 0.00053255,
      "inclination_deg": 97.33,
      "raan_deg": 300.0008,
      "arg_perigee_deg": 323.4667,
      "mean_anomaly_deg": 36.6192,
      "mean_motion_rev_day": 14.97249299
    },
    {
      "epoch": "2026-04-07T14:11:15.124992Z",
      "apogee_km": 579.068277936617,
      "perigee_km": 571.6814232275074,
      "latitude_deg": 6.561481109481838e-05,
      "longitude_deg": -107.36147830545868,
      "height_km": 575.7103891206689,
      "semi_major_axis_km": 6953.511850582062,
      "eccentricity": 0.00053116,
      "inclination_deg": 97.3303,
      "raan_deg": 301.3174,
      "arg_perigee_deg": 317.6546,
      "mean_anomaly_deg": 42.4267,
      "mean_motion_rev_day": 14.97257383
    },
    {
      "epoch": "2026-04-07T20:36:11.757888Z",
      "apogee_km": 579.0566168309479,
      "perigee_km": 571.6845081132151,
      "latitude_deg": -4.162982505548068e-06,
      "longitude_deg": 156.3898747135279,
      "height_km": 575.7632067336796,
      "semi_major_axis_km": 6953.507562472081,
      "eccentricity": 0.0005301,
      "inclination_deg": 97.3304,
      "raan_deg": 301.5682,
      "arg_perigee_deg": 316.4778,
      "mean_anomaly_deg": 43.6026,
      "mean_motion_rev_day": 14.97258768
    },
    {
      "epoch": "2026-04-08T14:14:47.401152Z",
      "apogee_km": 579.0373910724093,
      "perigee_km": 571.680036327657,
      "latitude_deg": 1.824989990558117e-05,
      "longitude_deg": -108.29362588532463,
      "height_km": 575.9038830263305,
      "semi_major_axis_km": 6953.495713700033,
      "eccentricity": 0.00052904,
      "inclination_deg": 97.3304,
      "raan_deg": 302.2578,
      "arg_perigee_deg": 313.2484,
      "mean_anomaly_deg": 46.8297,
      "mean_motion_rev_day": 14.97262595
    },
    {
      "epoch": "2026-04-09T20:43:15.923136Z",
      "apogee_km": 579.0110709565515,
      "perigee_km": 571.6626397861946,
      "latitude_deg": -1.5637166911971376e-05,
      "longitude_deg": 154.5270861673997,
      "height_km": 576.1656326047531,
      "semi_major_axis_km": 6953.473855371372,
      "eccentricity": 0.0005284,
      "inclination_deg": 97.3304,
      "raan_deg": 303.4489,
      "arg_perigee_deg": 307.5108,
      "mean_anomaly_deg": 52.5634,
      "mean_motion_rev_day": 14.97269655
    }
  ]
}